{
  "type": "FeatureCollection",
  "features": [
    {
      "type": "Feature",
      "properties": {
        "norad_id": 66611,
        "name": "STARLINK-35583",
        "group": "last-30-days",
        "lat": -24.539616759627208,
        "lon": -43.32381290903768,
        "alt_km": 445.7453227252736,
        "timestamp": "2025-12-27T10:28:57.513177+00:00",
        "meta_object_name": "STARLINK-35583",
        "meta_object_id": "2025-270Z",
        "meta_epoch": "2025-12-26T16:25:44.103072",
        "meta_mean_motion": 15.40707676,
        "meta_eccentricity": 0.00016338,
        "meta_inclination": 42.9993,
        "meta_ra_of_asc_node": 111.6744,
        "meta_arg_of_pericenter": 285.7881,
        "meta_mean_anomaly": 74.2796,
        "meta_ephemeris_type": 0,
        "meta_classification_type": "U",
        "meta_norad_cat_id": 66611,
        "meta_element_set_no": 999,
        "meta_rev_at_epoch": 661,
        "meta_bstar": 0.0014847827,
        "meta_mean_motion_dot": 0.00062243,
        "meta_mean_motion_ddot": 0,
        "tle_line1": "1 66611U 25270Z   25360.68453823  .00062243  00000+0  14848-2 0  9994",
        "tle_line2": "2 66611  42.9993 111.6744 0001633 285.7881  74.2796 15.40707676  6615"
      },
      "geometry": {
        "type": "Point",
        "coordinates": [
          -43.32381290903768,
          -24.539616759627208
        ]
      }
    },
    {
      "type": "Feature",
      "properties": {
        "norad_id": 66612,
        "name": "STARLINK-36039",
        "group": "last-30-days",
        "lat": -20.532084514474807,
        "lon": 84.2415485983687,
        "alt_km": 444.9119161912786,
        "timestamp": "2025-12-27T10:28:57.513187+00:00",
        "meta_object_name": "STARLINK-36039",
        "meta_object_id": "2025-270AA",
        "meta_epoch": "2025-12-26T08:10:07.769280",
        "meta_mean_motion": 15.4077388,
        "meta_eccentricity": 0.0001563,
        "meta_inclination": 42.9999,
        "meta_ra_of_asc_node": 114.2604,
        "meta_arg_of_pericenter": 261.7567,
        "meta_mean_anomaly": 98.3112,
        "meta_ephemeris_type": 0,
        "meta_classification_type": "U",
        "meta_norad_cat_id": 66612,
        "meta_element_set_no": 999,
        "meta_rev_at_epoch": 644,
        "meta_bstar": 0.0014141,
        "meta_mean_motion_dot": 0.00059376,
        "meta_mean_motion_ddot": 0,
        "tle_line1": "1 66612U 25270AA  25360.34036770  .00059376  00000+0  14141-2 0  9995",
        "tle_line2": "2 66612  42.9999 114.2604 0001563 261.7567  98.3112 15.40773880  6443"
      },
      "geometry": {
        "type": "Point",
        "coordinates": [
          84.2415485983687,
          -20.532084514474807
        ]
      }
    },
    {
      "type": "Feature",
      "properties": {
        "norad_id": 66613,
        "name": "STARLINK-36037",
        "group": "last-30-days",
        "lat": -4.349101896180392,
        "lon": 103.20407200115041,
        "alt_km": 442.57294788278705,
        "timestamp": "2025-12-27T10:28:57.513197+00:00",
        "meta_object_name": "STARLINK-36037",
        "meta_object_id": "2025-270AB",
        "meta_epoch": "2025-12-26T15:50:25.954368",
        "meta_mean_motion": 15.4073953,
        "meta_eccentricity": 0.00043437,
        "meta_inclination": 43.0056,
        "meta_ra_of_asc_node": 112.3618,
        "meta_arg_of_pericenter": 287.9955,
        "meta_mean_anomaly": 72.0428,
        "meta_ephemeris_type": 0,
        "meta_classification_type": "U",
        "meta_norad_cat_id": 66613,
        "meta_element_set_no": 999,
        "meta_rev_at_epoch": 649,
        "meta_bstar": 0.0011730413,
        "meta_mean_motion_dot": 0.00049089,
        "meta_mean_motion_ddot": 0,
        "tle_line1": "1 66613U 25270AB  25360.66002262  .00049089  00000+0  11730-2 0  9991",
        "tle_line2": "2 66613  43.0056 112.3618 0004343 287.9955  72.0428 15.40739530  6492"
      },
      "geometry": {
        "type": "Point",
        "coordinates": [
          103.20407200115041,
          -4.349101896180392
        ]
      }
    },
    {
      "type": "Feature",
      "properties": {
        "norad_id": 66614,
        "name": "STARLINK-36040",
        "group": "last-30-days",
        "lat": 41.08743378039952,
        "lon": -141.7347650700472,
        "alt_km": 437.230926747171,
        "timestamp": "2025-12-27T10:28:57.513207+00:00",
        "meta_object_name": "STARLINK-36040",
        "meta_object_id": "2025-270AC",
        "meta_epoch": "2025-12-27T00:41:32.801568",
        "meta_mean_motion": 15.40691282,
        "meta_eccentricity": 6.79e-05,
        "meta_inclination": 43.0004,
        "meta_ra_of_asc_node": 109.9619,
        "meta_arg_of_pericenter": 20.0612,
        "meta_mean_anomaly": 340.0272,
        "meta_ephemeris_type": 0,
        "meta_classification_type": "U",
        "meta_norad_cat_id": 66614,
        "meta_element_set_no": 999,
        "meta_rev_at_epoch": 639,
        "meta_bstar": 0.0024529,
        "meta_mean_motion_dot": 0.00103528,
        "meta_mean_motion_ddot": 0,
        "tle_line1": "1 66614U 25270AC  25361.02885187  .00103528  00000+0  24529-2 0  9997",
        "tle_line2": "2 66614  43.0004 109.9619 0000679  20.0612 340.0272 15.40691282  6398"
      },
      "geometry": {
        "type": "Point",
        "coordinates": [
          -141.7347650700472,
          41.08743378039952
        ]
      }
    },
    {
      "type": "Feature",
      "properties": {
        "norad_id": 66615,
        "name": "STARLINK-35988",
        "group": "last-30-days",
        "lat": 20.685438524960325,
        "lon": 131.6887763206826,
        "alt_km": 440.86249300873715,
        "timestamp": "2025-12-27T10:28:57.513217+00:00",
        "meta_object_name": "STARLINK-35988",
        "meta_object_id": "2025-270AD",
        "meta_epoch": "2025-12-25T16:20:27.897216",
        "meta_mean_motion": 15.40700329,
        "meta_eccentricity": 0.00016951,
        "meta_inclination": 43.0013,
        "meta_ra_of_asc_node": 117.9088,
        "meta_arg_of_pericenter": 260.634,
        "meta_mean_anomaly": 99.4325,
        "meta_ephemeris_type": 0,
        "meta_classification_type": "U",
        "meta_norad_cat_id": 66615,
        "meta_element_set_no": 999,
        "meta_rev_at_epoch": 618,
        "meta_bstar": 0.0010609961,
        "meta_mean_motion_dot": 0.00044275,
        "meta_mean_motion_ddot": 0,
        "tle_line1": "1 66615U 25270AD  25359.68087844  .00044275  00000+0  10610-2 0  9990",
        "tle_line2": "2 66615  43.0013 117.9088 0001695 260.6340  99.4325 15.40700329  6181"
      },
      "geometry": {
        "type": "Point",
        "coordinates": [
          131.6887763206826,
          20.685438524960325
        ]
      }
    },
    {
      "type": "Feature",
      "properties": {
        "norad_id": 66616,
        "name": "STARLINK-35391",
        "group": "last-30-days",
        "lat": 31.285045169547445,
        "lon": -113.14794765394112,
        "alt_km": 439.1334676957167,
        "timestamp": "2025-12-27T10:28:57.513229+00:00",
        "meta_object_name": "STARLINK-35391",
        "meta_object_id": "2025-270AE",
        "meta_epoch": "2025-12-27T00:35:05.078976",
        "meta_mean_motion": 15.40721142,
        "meta_eccentricity": 7.83e-05,
        "meta_inclination": 43.0003,
        "meta_ra_of_asc_node": 109.9282,
        "meta_arg_of_pericenter": 260.1391,
        "meta_mean_anomaly": 99.9378,
        "meta_ephemeris_type": 0,
        "meta_classification_type": "U",
        "meta_norad_cat_id": 66616,
        "meta_element_set_no": 999,
        "meta_rev_at_epoch": 666,
        "meta_bstar": 0.0022574,
        "meta_mean_motion_dot": 0.00095244,
        "meta_mean_motion_ddot": 0,
        "tle_line1": "1 66616U 25270AE  25361.02436434  .00095244  00000+0  22574-2 0  9999",
        "tle_line2": "2 66616  43.0003 109.9282 0000783 260.1391  99.9378 15.40721142  6668"
      },
      "geometry": {
        "type": "Point",
        "coordinates": [
          -113.14794765394112,
          31.285045169547445
        ]
      }
    },
    {
      "type": "Feature",
      "properties": {
        "norad_id": 66617,
        "name": "STARLINK-35940",
        "group": "last-30-days",
        "lat": -37.455282668162965,
        "lon": 82.78042482668964,
        "alt_km": 451.70621256566665,
        "timestamp": "2025-12-27T10:28:57.513240+00:00",
        "meta_object_name": "STARLINK-35940",
        "meta_object_id": "2025-271A",
        "meta_epoch": "2025-12-27T01:20:59.376192",
        "meta_mean_motion": 15.39700977,
        "meta_eccentricity": 0.000159,
        "meta_inclination": 53.1608,
        "meta_ra_of_asc_node": 119.6271,
        "meta_arg_of_pericenter": 73.786,
        "meta_mean_anomaly": 286.332,
        "meta_ephemeris_type": 0,
        "meta_classification_type": "U",
        "meta_norad_cat_id": 66617,
        "meta_element_set_no": 999,
        "meta_rev_at_epoch": 641,
        "meta_bstar": 0.0017212,
        "meta_mean_motion_dot": 0.00069261,
        "meta_mean_motion_ddot": 0,
        "tle_line1": "1 66617U 25271A   25361.05624278  .00069261  00000+0  17212-2 0  9992",
        "tle_line2": "2 66617  53.1608 119.6271 0001590  73.7860 286.3320 15.39700977  6417"
      },
      "geometry": {
        "type": "Point",
        "coordinates": [
          82.78042482668964,
          -37.455282668162965
        ]
      }
    }
  ]
}